{"fetched_at":"2026-04-03T16:39:56Z","count":4162,"tles":[{"name":"ICEYE-X12","line1":"1 48914U 21059AM  23362.42981525  .00016602  00000+0  78320-3 0  9992","line2":"2 48914  97.6141 134.5462 0001769 318.3531  41.7569 15.19543383138486","category":"Other"},{"name":"SITRO-AIS 25","line1":"1 59066U 24039R   26092.98650575  .00009270  00000+0  73121-3 0  9992","line2":"2 59066  95.3928 183.4331 0144828 230.3732 128.4638 14.92865184113504","category":"Other"},{"name":"KINEIS-2B","line1":"1 62934U 25028G   26092.88874972  .00002153  00000+0  34137-3 0  9994","line2":"2 62934  97.9743 147.1010 0004331  52.2425 307.9174 14.73193665 61575","category":"Other"},{"name":"HAWK-11C","line1":"1 62381U 24247E   26092.42330333  .00012010  00000+0  42433-3 0  9991","line2":"2 62381  45.0069 344.0608 0004327 142.7739 217.3446 15.29298253 71405","category":"Other"},{"name":"GLOBAL-32","line1":"1 64231U 25118B   26092.69012672  .00027279  00000+0  71785-3 0  9992","line2":"2 64231  58.9929  77.6095 0006398 329.9354  30.1354 15.38449348 46628","category":"Other"},{"name":"2025-012B","line1":"1 62726U 25012B   26092.93122256  .00009927  00000+0  45653-3 0  9994","line2":"2 62726  97.4274 167.0856 0009502 169.9653 190.1774 15.20505828 66812","category":"Other"},{"name":"CENTISPACE-1 S10","line1":"1 62579U 25007E   26092.75497360 -.00000008  00000+0  12539-3 0  9994","line2":"2 62579  54.9882 195.2067 0009193 311.6667  48.3501 13.80583277 64318","category":"Other"},{"name":"SHIJIAN-30A (SJ-30A)","line1":"1 66545U 25266A   26092.93067061  .00016810  00000+0  88751-3 0  9995","line2":"2 66545  51.7971 171.9262 0011833  12.2567 347.8695 15.15571231 20448","category":"Other"},{"name":"ICEYE-X44","line1":"1 62707U 25009DC  26092.69383524  .00005024  00000+0  45794-3 0  9999","line2":"2 62707  97.7071 173.0349 0002147  68.4840 291.6609 14.95564200 88652","category":"Other"},{"name":"IOD-2","line1":"1 64538U 25135L   26092.87471358  .00008631  00000+0  40629-3 0  9995","line2":"2 64538  97.4605 208.2553 0006158  84.6473 275.5465 15.19766900 43382","category":"Other"},{"name":"COSMOS 2581","line1":"1 62902U 25026A   26092.71901166  .00001835  00000+0  16647-3 0  9997","line2":"2 62902  81.9965 151.4919 0008820 311.2171  48.8287 14.94812776 62940","category":"Other"},{"name":"KINEIS-4C","line1":"1 63301U 25056B   26090.65044348  .00001386  00000+0  22698-3 0  9999","line2":"2 63301  97.9714 216.7422 0002191 149.9407 210.1926 14.72304810 55723","category":"Other"},{"name":"RAY 1.0","line1":"1 62627U 25009U   26092.93208507  .00006170  00000+0  28706-3 0  9991","line2":"2 62627  97.4012 172.6356 0009086 169.2230 190.9202 15.20269245 67242","category":"Other"},{"name":"GLOBAL-31","line1":"1 63027U 25033B   26091.76640488  .00009691  00000+0  25278-3 0  9993","line2":"2 63027  58.9976 264.9790 0012312  47.4522 312.7592 15.39448886 62568","category":"Other"},{"name":"GEOSCAN 1 (RS92S1)","line1":"1 64880U 25155E   26092.90403042  .00023969  00000+0  84801-3 0  9997","line2":"2 64880  97.4500  61.3692 0010190  86.3200 273.9205 15.29105320 69269","category":"Other"},{"name":"YUBILEINY (RS30)","line1":"1 32953U 08025A   26092.93187021 -.00000024  00000+0 -24229-3 0  9996","line2":"2 32953  82.5047  42.2403 0020362 113.5004 246.8218 12.43176765810341","category":"Other"},{"name":"SKYSAT-C16","line1":"1 45789U 20038BM  23362.51678542  .00036458  00000+0  57270-3 0  9999","line2":"2 45789  52.9788 133.7921 0005510   2.6753 357.4284 15.53303284201712","category":"Other"},{"name":"GESAT GEN1","line1":"1 62612U 25009D   26092.44722813  .00014021  00000+0  52614-3 0  9991","line2":"2 62612  97.4039 174.9983 0001647 121.5453 238.5947 15.27328862 67354","category":"Other"},{"name":"NASBSAT-2","line1":"1 67285U 25313AP  26092.88448336  .00014343  00000+0  61656-3 0  9996","line2":"2 67285  97.3955 168.8352 0009017 262.7543  97.2668 15.22727479 14501","category":"Other"},{"name":"FOSSASAT-2E19 (TAT-E)","line1":"1 62676U 25009BV  26092.18673197  .00004273  00000+0  19725-3 0  9996","line2":"2 62676  97.3981 171.8363 0003910 232.9171 127.1707 15.20742635 67141","category":"Other"},{"name":"IRIDE-MS2-HEO-5","line1":"1 64571U 25135AV  26092.92165023  .00004799  00000+0  45956-3 0  9996","line2":"2 64571  97.7625 208.0703 0002850 174.4057 185.7195 14.93636138 42651","category":"Other"},{"name":"HAWK-11A","line1":"1 62382U 24247F   26092.42342130  .00012447  00000+0  43935-3 0  9992","line2":"2 62382  44.9957 343.4943 0003818 143.0351 217.0797 15.29299781 71406","category":"Other"},{"name":"TEN-KOH 2","line1":"1 68261U 25241B   26092.64103165  .00010726  00000+0  46515-3 0  9991","line2":"2 68261  51.6394 318.9909 0004568 244.6568 115.3937 15.22854649  3390","category":"Other"},{"name":"CONNECTA IOT-10","line1":"1 64555U 25135AD  26092.73031733  .00004451  00000+0  20602-3 0  9993","line2":"2 64555  97.4585 208.5312 0001345 140.6851 219.4483 15.20635152 43394","category":"Other"},{"name":"KINEIS-5C","line1":"1 62081U 24219A   26092.96126593 -.00000235  00000+0 -29485-4 0  9998","line2":"2 62081  97.9289 253.8721 0004484 119.3889 240.7767 14.72331808 72683","category":"Other"},{"name":"YAM-8","line1":"1 63254U 25052AW  26092.96757340  .00011139  00000+0  66585-3 0  9991","line2":"2 63254  97.7008 353.9330 0004017  99.3833 260.7851 15.11241507 57903","category":"Other"},{"name":"2025-197B","line1":"1 65489U 25197B   26092.94458233  .00009409  00000+0  40726-3 0  9996","line2":"2 65489  97.4105 280.4744 0011977 273.1326  86.8540 15.22576772 31849","category":"Other"},{"name":"AIST-2T 1","line1":"1 67253U 25313F   26092.91029736  .00054083  00000+0  64663-3 0  9990","line2":"2 67253  97.0883 170.5818 0008267 163.5884 196.5644 15.60798734 14884","category":"Other"},{"name":"ICEYE-X34","line1":"1 58294U 23174AQ  26092.53528299  .00084771  00000+0  12511-2 0  9995","line2":"2 58294  97.3900 180.6974 0002728  77.6414 282.5145 15.55073797133958","category":"Other"},{"name":"CENTAURI-7","line1":"1 62708U 25009DD  26092.95850196  .00007735  00000+0  67167-3 0  9992","line2":"2 62708  97.7094 174.2104 0002355 111.0469 249.1005 14.97295376 66205","category":"Other"},{"name":"COSMOS 2572","line1":"1 58435U 23182A   26091.59477166  .00017342  19882-5  59278-4 0  9999","line2":"2 58435  96.6823 196.8962 0017618 190.4396 169.6516 15.90070829136282","category":"Other"},{"name":"FENGYUN 1C DEB","line1":"1 35141U 99025DLV 23177.05011955  .00004628  00000+0  24869-2 0  9995","line2":"2 35141  99.0460 264.1718 0079646  71.0492  52.5025 14.11768439777215","category":"Weather"},{"name":"FLOCK 4X-28","line1":"1 51045U 22002BP  24203.43435422  .16424270  25526-5  36664-3 0  9998","line2":"2 51045  97.3574 285.6484 0014875 269.4459  90.5138 16.45323616140708","category":"Other"},{"name":"ARIANE 1 DEB","line1":"1 28557U 79104W   26054.36139245 -.00000066  00000+0 -17269-2 0  9998","line2":"2 28557  19.8194  34.9289 7391854 172.1495 357.5462  1.97528548 29419","category":"Other"},{"name":"ONEWEB-0058","line1":"1 45161U 20008AG  26092.92216213 -.00000287  00000+0 -85871-3 0  9992","line2":"2 45161  87.8823  51.2567 0002123  82.3041 277.8328 13.10373604298562","category":"Other"},{"name":"STARLINK-5601","line1":"1 55744U 23028D   26092.70271668  .00084364  00000+0  68781-2 0  9992","line2":"2 55744  70.0009 184.0494 0004249 292.9066  67.1644 14.98970436169630","category":"Starlink"},{"name":"FENGYUN 1C DEB","line1":"1 31010U 99025BDC 26091.45809723  .00006677  00000+0  25448-2 0  9996","line2":"2 31010 101.7363 280.4862 0108124  68.8637 292.4050 14.28137500971945","category":"Weather"},{"name":"STARLINK-2118","line1":"1 47396U 21005AZ  23362.41374455  .00001718  00000+0  13428-3 0  9993","line2":"2 47396  53.0558  33.1772 0001895  64.3665 295.7520 15.06388325163150","category":"Starlink"},{"name":"STARLINK-6123","line1":"1 57103U 23090C   23362.12434655  .00000606  00000+0  59953-4 0  9992","line2":"2 57103  43.0038 289.8013 0001241 261.3975  98.6726 15.02511083 28844","category":"Starlink"},{"name":"STARLINK-31287","line1":"1 58950U 24027V   24064.42137150  .83069799  12477-4  23961-2 0  9990","line2":"2 58950  53.1544 117.4851 0002550 154.2026 326.7997 16.45373278  4429","category":"Starlink"},{"name":"STARLINK-34865","line1":"1 65200U 25176C   26092.84692089  .00049532  00000+0  16697-2 0  9992","line2":"2 65200  53.1617  40.9052 0002174 100.9895 259.1351 15.30269578 36814","category":"Starlink"},{"name":"TITAN 3C TRANSTAGE DEB","line1":"1 38704U 68081AE  26092.77004083 -.00000188  00000+0  00000+0 0  9999","line2":"2 38704   3.9527  63.9456 0211808 223.9488 134.5327  1.02194214 75235","category":"Other"},{"name":"STARLINK-4167","line1":"1 53033U 22076AZ  26092.93509226  .00001840  00000+0  13369-3 0  9993","line2":"2 53033  53.2190 325.2796 0001353  83.6907 276.4240 15.08839895206789","category":"Starlink"},{"name":"QIANFAN-45","line1":"1 62246U 24232K   26092.88219889  .00000151  00000+0  21485-3 0  9994","line2":"2 62246  89.0110  30.0257 0012401 228.0944 131.9151 13.51011923114266","category":"Other"},{"name":"STARLINK-36841","line1":"1 67960U 26037AE  26092.91668981 -.01926884  00000+0 -51726-1 0  9994","line2":"2 67960  43.0000  53.9036 0001860 260.8610 179.2800 15.40604210  6074","category":"Starlink"},{"name":"STARLINK-11184 [DTC]","line1":"1 60071U 24113N   26092.66115490  .00001429  00000+0  16651-4 0  9994","line2":"2 60071  53.1594  73.2619 0001557 105.0859 255.0331 15.69717821103322","category":"Starlink"},{"name":"STARLINK-34650","line1":"1 66258U 25245AA  26092.94577137  .00059253  00000+0  19940-2 0  9995","line2":"2 66258  53.1592 170.9795 0001194  82.1387 277.9749 15.30245287 24970","category":"Starlink"},{"name":"STARLINK-33734","line1":"1 63367U 25063E   26092.88816271  .00061477  00000+0  20674-2 0  9996","line2":"2 63367  53.1589 310.0369 0001075  94.2292 265.8832 15.30250747 58271","category":"Starlink"}]}